[
    {
        "Altitude(m)": 607910.9889347063,
        "Argument of Periapsis(deg)": 0.0,
        "Eccentricity": 0.0,
        "Inclination(deg)": 60.0,
        "Latitude(deg)": -14.2928308809472,
        "Longitude(deg)": 113.44264428920546,
        "Mean Anomaly(deg)": 196.36359999999996,
        "RAAN(deg)": 25.0,
        "Satellite Name": "Test1 122",
        "Satellite Number": 122,
        "Semi-Major Axis(m)": 6980739.136638005,
        "Time(s)": 0
    },
    {
        "Altitude(m)": 608060.2218569239,
        "Argument of Periapsis(deg)": 0.00010418945913296404,
        "Eccentricity": 0.0,
        "Inclination(deg)": 60.0,
        "Latitude(deg)": -14.826492355212434,
        "Longitude(deg)": 113.73125345383997,
        "Mean Anomaly(deg)": 196.9837061454618,
        "RAAN(deg)": 24.99957995086026,
        "Satellite Name": "Test1 122",
        "Satellite Number": 122,
        "Semi-Major Axis(m)": 6980739.136638005,
        "Time(s)": 10
    }
]